{
    "links": {
        "self": "http://www.neowsapp.com/rest/v1/neo/54087423?api_key=iIulBulltgU6a56xZRHN4H3l9WmuAYTsLGpBGhQ2"
    },
    "id": "54087423",
    "neo_reference_id": "54087423",
    "name": "(2020 VO)",
    "designation": "2020 VO",
    "nasa_jpl_url": "http://ssd.jpl.nasa.gov/sbdb.cgi?sstr=54087423",
    "absolute_magnitude_h": 22.941,
    "estimated_diameter": {
        "kilometers": {
            "estimated_diameter_min": 0.0686048749,
            "estimated_diameter_max": 0.1534051638
        },
        "meters": {
            "estimated_diameter_min": 68.6048748788,
            "estimated_diameter_max": 153.4051638168
        },
        "miles": {
            "estimated_diameter_min": 0.0426290797,
            "estimated_diameter_max": 0.09532152
        },
        "feet": {
            "estimated_diameter_min": 225.0816176973,
            "estimated_diameter_max": 503.2977976568
        }
    },
    "is_potentially_hazardous_asteroid": false,
    "close_approach_data": [
        {
            "close_approach_date": "2020-11-04",
            "close_approach_date_full": "2020-Nov-04 17:45",
            "epoch_date_close_approach": 1604511900000,
            "relative_velocity": {
                "kilometers_per_second": "17.6476595398",
                "kilometers_per_hour": "63531.5743433866",
                "miles_per_hour": "39476.0496246448"
            },
            "miss_distance": {
                "astronomical": "0.1335433856",
                "lunar": "51.9483769984",
                "kilometers": "19977806.038348672",
                "miles": "12413633.0444167936"
            },
            "orbiting_body": "Earth"
        },
        {
            "close_approach_date": "2031-11-14",
            "close_approach_date_full": "2031-Nov-14 07:32",
            "epoch_date_close_approach": 1952407920000,
            "relative_velocity": {
                "kilometers_per_second": "18.7266568427",
                "kilometers_per_hour": "67415.9646337967",
                "miles_per_hour": "41889.6586914833"
            },
            "miss_distance": {
                "astronomical": "0.4818883185",
                "lunar": "187.4545558965",
                "kilometers": "72089466.025481595",
                "miles": "44794317.048152211"
            },
            "orbiting_body": "Earth"
        }
    ],
    "orbital_data": {
        "orbit_id": "10",
        "orbit_determination_date": "2020-11-28 05:19:39",
        "first_observation_date": "2020-10-28",
        "last_observation_date": "2020-11-26",
        "data_arc_in_days": 29,
        "observations_used": 77,
        "orbit_uncertainty": "7",
        "minimum_orbit_intersection": ".133721",
        "jupiter_tisserand_invariant": "3.968",
        "epoch_osculation": "2459000.5",
        "eccentricity": ".3545037144464271",
        "semi_major_axis": "1.699386447751748",
        "inclination": "31.98900010403255",
        "ascending_node_longitude": "220.5995270992208",
        "orbital_period": "809.1641864034929",
        "perihelion_distance": "1.096947639743834",
        "perihelion_argument": "206.5457953399093",
        "aphelion_distance": "2.301825255759661",
        "perihelion_time": "2459182.190009996121",
        "mean_anomaly": "279.1654738337772",
        "mean_motion": ".4449035264401638",
        "equinox": "J2000",
        "orbit_class": {
            "orbit_class_type": "AMO",
            "orbit_class_description": "Near-Earth asteroid orbits similar to that of 1221 Amor",
            "orbit_class_range": "1.017 AU < q (perihelion) < 1.3 AU"
        }
    },
    "is_sentry_object": false
}